STARLINK-4266           
1 52869U 22062AR  26011.01268547  .00000449  00000+0  46272-4 0  9996
2 52869  53.2178 273.0447 0001327  84.1796 275.9347 15.08841014197357
STARLINK-4195           
1 52870U 22062AS  26011.33335648  .01121843  00000+0  16061-1 0  9993
2 52870  53.2183 277.6671 0001083  83.6778  26.8793 15.53234389  5859
STARLINK-4207           
1 52871U 22062AT  26011.13412835 -.00000303  00000+0 -94511-6 0  9995
2 52871  53.2172 272.4983 0001401  86.8071 273.3082 15.08839398197372
STARLINK-4213           
1 52872U 22062AU  26011.00627863 -.00001111  00000+0 -51727-4 0  9999
2 52872  53.2177 273.0428 0001350  91.7279 268.3868 15.08844021197350
STARLINK-4211           
1 52873U 22062AV  26010.99428567 -.00000311  00000+0 -14273-5 0  9994
2 52873  53.2173 273.1260 0001176  85.7700 274.3427 15.08839864197357
STARLINK-4193           
1 52875U 22062AX  26011.12308380 -.00000764  00000+0 -29914-4 0  9991
2 52875  53.2170 272.5479 0001287  94.9091 265.2048 15.08844894197378
STARLINK-4200           
1 52876U 22062AY  26011.13044570  .00000859  00000+0  72089-4 0  9995
2 52876  53.2171 272.5151 0001591  88.0740 272.0435 15.08839843197374
STARLINK-4214           
1 52877U 22062AZ  26011.16356510  .00000391  00000+0  42624-4 0  9992
2 52877  53.2175 272.3773 0001354  92.3375 267.7772 15.08842940197384
STARLINK-4171           
1 52878U 22062BA  26010.98693449  .00002800  00000+0  19397-3 0  9994
2 52878  53.2182 273.1591 0001319  90.6375 269.4768 15.08828549197352
STARLINK-4139           
1 52879U 22062BB  26011.02005026 -.00000074  00000+0  13448-4 0  9993
2 52879  53.2180 273.0130 0001458  83.6702 276.4456 15.08834767197361
STARLINK-4186           
1 52880U 22062BC  26011.15620990  .00003533  00000+0  23989-3 0  9994
2 52880  53.2178 272.4011 0001324  94.3617 265.7527 15.08848322197381
STARLINK-4181           
1 52882U 22062BE  26011.10831411  .00002726  00000+0  18931-3 0  9997
2 52882  53.2175 272.1914 0001619  92.8071 267.3106 15.08841441197389
GLOBALSTAR M087         
1 52888U 22064A   26011.14054610 -.00000093  00000+0  57497-4 0  9994
2 52888  51.9969 180.5736 0000993  81.4146 278.6833 12.62262299171307
PVSAT                   
1 52894U 22065A   26011.26703830  .00000417  00000+0  97727-4 0  9999
2 52894  98.2023 152.2244 0010090 141.2629 218.9296 14.59410310189462
KSLV-II DUMMY           
1 52895U 22065B   26011.29612929  .00000071  00000+0  25041-4 0  9997
2 52895  98.2075 152.8100 0008712 156.5084 203.6515 14.58658995189488
STEP CUBE LAB-II        
1 52897U 22065D   26011.32632731  .00001188  00000+0  24110-3 0  9991
2 52897  98.1968 155.9699 0009114 149.9911 210.1815 14.62961725188566
RANDEV                  
1 52898U 22065E   26011.29959032  .00001273  00000+0  25567-3 0  9996
2 52898  98.1955 156.2264 0008406 150.2940 209.8740 14.63324318188301
SNUGLITE-II             
1 52899U 22065F   26011.33032382  .00001379  00000+0  27266-3 0  9997
2 52899  98.1945 156.7019 0008055 149.5793 210.5878 14.63940480188047
MIMAN                   
1 52900U 22065G   26011.29222482  .00000730  00000+0  15632-3 0  9991
2 52900  98.1998 154.8171 0008196 149.4166 210.7514 14.61600758187525
CMS-02 (GSAT 24)        
1 52903U 22067A   26011.13586657 -.00000150  00000+0  00000+0 0  9992
2 52903   0.0791 266.0509 0004454   6.7207 329.7816  1.00273194 13035
MEASAT 3D               
1 52904U 22067B   26011.11136823 -.00000227  00000+0  00000+0 0  9992
2 52904   0.0538 299.3770 0003475   8.7118 294.1117  1.00273000 13078
YAOGAN-35 02A           
1 52907U 22068A   26011.26389696  .00009330  00000+0  40500-3 0  9996
2 52907  34.9932  45.4381 0010380 106.6921 253.4933 15.21532649197955
YAOGAN-35 02B           
1 52908U 22068B   26011.30420933  .00047082  00000+0  10719-2 0  9996
2 52908  35.0008   6.5633 0002377 240.5963 119.4520 15.41887454198336
GAOFEN-12 03            
1 52912U 22069A   26011.25621355  .00001446  00000+0  19935-3 0  9991
2 52912  97.8468 262.9233 0000987  42.7113 317.4175 14.79695279191404
SES-22                  
1 52933U 22071A   26011.22787003  .00000119  00000+0  00000+0 0  9992
2 52933   0.0160  34.7587 0000921 258.6991 120.2875  1.00271009  5940
DS-EO                   
1 52935U 22072A   26011.20686522  .00005467  00000+0  26143-3 0  9998
2 52935   9.9942 277.0150 0003553 199.6146 160.3933 15.12255938194698
WFOV (USA 332)          
1 52940U 22073A   26010.97426655 -.00000350  00000+0  00000+0 0  9994
2 52940   3.3079  80.5905 0002148 160.2854 339.5992  1.00274281 12796
COSMOS 2557 [GLONASS-K] 
1 52984U 22075A   26010.90660601 -.00000082  00000+0  00000+0 0  9990
2 52984  64.3923 320.0257 0013200 279.6782  80.1762  2.13101649 27362
STARLINK-4260           
1 52986U 22076A   26011.21508853  .00000419  00000+0  44435-4 0  9996
2 52986  53.2189 352.1342 0001372  87.5832 272.5317 15.08836388194164
STARLINK-4259           
1 52987U 22076B   26011.25464405  .00000587  00000+0  54960-4 0  9995
2 52987  53.2198   1.9574 0001422  85.6951 274.4204 15.08839873194032
STARLINK-4291           
1 52988U 22076C   26011.21140942 -.00000584  00000+0 -18601-4 0  9990
2 52988  53.2177 352.1520 0001394  91.0600 269.0552 15.08839609194169
STARLINK-4293           
1 52989U 22076D   26011.25096353  .00000600  00000+0  55756-4 0  9990
2 52989  53.2194   1.9725 0001309  88.8312 271.2830 15.08838308194030
STARLINK-4286           
1 52990U 22076E   26011.24728552 -.00000452  00000+0 -10282-4 0  9996
2 52990  53.2184   1.9864 0001381  95.5527 264.5623 15.08840969194039
STARLINK-4285           
1 52991U 22076F   26011.17736290  .00000920  00000+0  75872-4 0  9991
2 52991  53.2190   2.3018 0001414  92.4220 267.6935 15.08842827194020
STARLINK-4269           
1 52992U 22076G   26011.24088348 -.00000531  00000+0 -15278-4 0  9998
2 52992  53.2183   2.0281 0001404  91.6027 268.5126 15.08838903194030
STARLINK-4264           
1 52993U 22076H   26011.33335648  .01370222  00000+0  17047-1 0  9996
2 52993  53.2215 347.7403 0001188  72.4194  76.2903 15.56547193  5751
STARLINK-4256           
1 52994U 22076J   26011.13780569  .00000524  00000+0  51017-4 0  9993
2 52994  53.2202 352.4845 0001501  87.9339 272.1825 15.08841466194152
STARLINK-4296           
1 52995U 22076K   26011.26292516  .00000087  00000+0  23544-4 0  9996
2 52995  53.2195 351.9216 0001440  87.2130 272.9027 15.08842197194170
STARLINK-4295           
1 52996U 22076L   26011.22711848 -.00000775  00000+0 -30639-4 0  9996
2 52996  53.2194 352.3597 0001274  89.1866 270.9272 15.08841555194165
STARLINK-4254           
1 52998U 22076N   26011.18564102 -.00001497  00000+0 -75965-4 0  9995
2 52998  53.2197 352.1816 0001256 103.5738 256.5394 15.08838455194161
STARLINK-4217           
1 52999U 22076P   26011.24453293 -.00000645  00000+0 -22459-4 0  9995
2 52999  53.2195 352.0036 0001543  93.6036 266.5132 15.08833875194175
STARLINK-4194           
1 53000U 22076Q   26011.25924450  .00000026  00000+0  19714-4 0  9999
2 53000  53.2198 351.9375 0001502 111.1595 248.9558 15.08845949194178
STARLINK-4190           
1 53001U 22076R   26011.24084764  .00001585  00000+0  11766-3 0  9993
2 53001  53.2186 352.0203 0001356  92.9981 267.1167 15.08840351194171
STARLINK-4121           
1 53002U 22076S   26011.25557109  .00000393  00000+0  42776-4 0  9995
2 53002  53.2204 351.9554 0001432  90.1909 269.9248 15.08835524194171
STARLINK-4255           
1 53003U 22076T   26011.23354238 -.00008293  00000+0 -50447-3 0  9994
2 53003  53.2207 352.0519 0000750  62.9661 297.1408 15.08775223194172
STARLINK-4253           
1 53004U 22076U   26011.18196274  .00000253  00000+0  33971-4 0  9993
2 53004  53.2200 352.2866 0001365  98.0882 262.0265 15.08841536194163
STARLINK-4288           
1 53005U 22076V   26011.22980711 -.00000906  00000+0 -38869-4 0  9994
2 53005  53.2189 352.0675 0001417  87.3438 272.7716 15.08838456194179
STARLINK-4290           
1 53006U 22076W   26011.23720046 -.00004531  00000+0 -26709-3 0  9996
2 53006  53.2210 352.0366 0001129  88.8245 271.2877 15.08798499194178
STARLINK-4215           
1 53007U 22076X   26011.22244204  .00000246  00000+0  33576-4 0  9991
2 53007  53.2195 352.0991 0001504  92.6059 267.5105 15.08843361194179
STARLINK-4275           
1 53008U 22076Y   26011.22612361  .00002766  00000+0  19175-3 0  9992
2 53008  53.2174 352.0727 0001627  81.8346 278.2831 15.08846773194174
STARLINK-4277           
1 53009U 22076Z   26011.14240911 -.00000668  00000+0 -23905-4 0  9990
2 53009  53.2194 342.4597 0001265  91.6451 268.4686 15.08835169194298
STARLINK-4263           
1 53010U 22076AA  26011.20033285  .00000585  00000+0  54830-4 0  9990
2 53010  53.2186 351.9316 0001405  86.5164 273.5989 15.08846296194178
STARLINK-4265           
1 53011U 22076AB  26011.20496795  .00000320  00000+0  38188-4 0  9995
2 53011  53.2189 342.1796 0001309  88.8931 271.2212 15.08835134194304
STARLINK-4271           
1 53012U 22076AC  26011.21876157  .00000456  00000+0  46761-4 0  9997
2 53012  53.2194 352.1171 0001438  91.5171 268.5986 15.08842813194173
STARLINK-4177           
1 53013U 22076AD  26011.19760959 -.00001434  00000+0 -72046-4 0  9991
2 53013  53.2191 342.2124 0001491  92.9384 267.1779 15.08835334194309
STARLINK-4183           
1 53014U 22076AE  26011.21232726  .00001161  00000+0  91037-4 0  9997
2 53014  53.2201 342.1488 0001282  97.5849 262.5289 15.08838011194309
STARLINK-4262           
1 53015U 22076AF  26011.19024384  .00001777  00000+0  12968-3 0  9992
2 53015  53.2191 342.2461 0001456  92.9279 267.1880 15.08842437194304
STARLINK-4283           
1 53016U 22076AG  26011.13504376 -.00000229  00000+0  37289-5 0  9998
2 53016  53.2198 342.4917 0001700 113.5336 246.5835 15.08836844194290
STARLINK-4281           
1 53017U 22076AH  26011.18656856  .00004105  00000+0  27603-3 0  9998
2 53017  53.2203 342.2635 0001459  90.9692 269.1468 15.08820875194310
